{"fetched_at":"2026-03-30T20:46:33Z","count":15425,"tles":[{"name":"STARLINK-31631","line1":"1 59459U 24068E   26087.57040295  .00001214  00000+0  53642-4 0  9998","line2":"2 59459  43.0008 284.1424 0001265 276.3739  83.6969 15.27570710111453","category":"Starlink"}]}