{
  "norad_id": 59459,
  "name": "STARLINK-31631",
  "history": [
    {
      "epoch": "2026-03-28T13:41:22.814880",
      "apogee_km": 483.9448573427835,
      "perigee_km": 482.2089702225976,
      "latitude_deg": 34.01738943912452,
      "longitude_deg": -179.34131680009887,
      "semi_major_axis_km": 6861.213913782691,
      "eccentricity": 0.0001265,
      "inclination_deg": 43.0008,
      "raan_deg": 284.1424,
      "arg_perigee_deg": 276.3739,
      "mean_anomaly_deg": 83.6969,
      "mean_motion_rev_day": 15.2757071
    }
  ]
}